{
    "links": {
        "self": "http://www.neowsapp.com/rest/v1/neo/3733938?api_key=iIulBulltgU6a56xZRHN4H3l9WmuAYTsLGpBGhQ2"
    },
    "id": "3733938",
    "neo_reference_id": "3733938",
    "name": "(2015 VC65)",
    "designation": "2015 VC65",
    "nasa_jpl_url": "http://ssd.jpl.nasa.gov/sbdb.cgi?sstr=3733938",
    "absolute_magnitude_h": 23.3,
    "estimated_diameter": {
        "kilometers": {
            "estimated_diameter_min": 0.058150704,
            "estimated_diameter_max": 0.130028927
        },
        "meters": {
            "estimated_diameter_min": 58.1507039646,
            "estimated_diameter_max": 130.0289270043
        },
        "miles": {
            "estimated_diameter_min": 0.0361331611,
            "estimated_diameter_max": 0.0807962044
        },
        "feet": {
            "estimated_diameter_min": 190.7831555951,
            "estimated_diameter_max": 426.6041048727
        }
    },
    "is_potentially_hazardous_asteroid": false,
    "close_approach_data": [
        {
            "close_approach_date": "2015-09-30",
            "close_approach_date_full": "2015-Sep-30 02:33",
            "epoch_date_close_approach": 1443580380000,
            "relative_velocity": {
                "kilometers_per_second": "7.5563320744",
                "kilometers_per_hour": "27202.7954679641",
                "miles_per_hour": "16902.7592173024"
            },
            "miss_distance": {
                "astronomical": "0.1017620976",
                "lunar": "39.5854559664",
                "kilometers": "15223393.047692112",
                "miles": "9459377.8026586656"
            },
            "orbiting_body": "Earth"
        }
    ],
    "orbital_data": {
        "orbit_id": "6",
        "orbit_determination_date": "2017-04-06 08:30:49",
        "first_observation_date": "2015-11-07",
        "last_observation_date": "2015-12-01",
        "data_arc_in_days": 24,
        "observations_used": 32,
        "orbit_uncertainty": "8",
        "minimum_orbit_intersection": ".0855225",
        "jupiter_tisserand_invariant": "3.307",
        "epoch_osculation": "2457335.5",
        "eccentricity": ".56318695887313",
        "semi_major_axis": "2.369815879013661",
        "inclination": "5.136068006159308",
        "ascending_node_longitude": "284.9382269500597",
        "orbital_period": "1332.509563286251",
        "perihelion_distance": "1.035166481022704",
        "perihelion_argument": "70.79528708293579",
        "aphelion_distance": "3.704465277004618",
        "perihelion_time": "2457287.768217609259",
        "mean_anomaly": "12.89554847042805",
        "mean_motion": ".2701669165601813",
        "equinox": "J2000",
        "orbit_class": {
            "orbit_class_type": "AMO",
            "orbit_class_description": "Near-Earth asteroid orbits similar to that of 1221 Amor",
            "orbit_class_range": "1.017 AU < q (perihelion) < 1.3 AU"
        }
    },
    "is_sentry_object": false
}